NORAD_CAT_ID,OBJECT_NAME,OBJECT_TYPE,EPOCH,MEAN_MOTION,ECCENTRICITY,INCLINATION,RA_OF_ASC_NODE,ARG_OF_PERICENTER,MEAN_ANOMALY,BSTAR,MEAN_MOTION_DOT,MEAN_MOTION_DDOT,TLE_LINE0,TLE_LINE1,TLE_LINE2,SEMIMAJOR_AXIS,PERIOD,APOGEE,PERIGEE,DECAYED
53617.0,STARLINK-4601,PAYLOAD,2023-11-03 12:53:46,15.08840656,0.0001479,53.2147,122.0596,87.0358,273.0804,7.0008e-05,8.26e-06,0.0,0 STARLINK-4601,1 53617U 22104AF  23307.53734479  .00000826  00000-0  70008-4 0  9993,2 53617  53.2147 122.0596 0001479  87.0358 273.0804 15.08840656 66237,6917.878,95.438,540.767,538.72,0.0
53617.0,STARLINK-4601,PAYLOAD,2023-11-03 20:50:42,15.08845581,0.0001346,53.2155,120.5729,87.9355,272.1792,0.00014364,1.999e-05,0.0,0 STARLINK-4601,1 53617U 22104AF  23307.86854203  .00001999  00000-0  14364-3 0  9991,2 53617  53.2155 120.5729 0001346  87.9355 272.1792 15.08845581 65716,6917.863,95.437,540.659,538.797,0.0
53617.0,STARLINK-4601,PAYLOAD,2023-11-03 22:26:05,15.08847673,0.0001312,53.2154,120.2753,88.1799,271.9344,0.00016929,2.408e-05,0.0,0 STARLINK-4601,1 53617U 22104AF  23307.93478074  .00002408  00000-0  16929-3 0  9992,2 53617  53.2154 120.2753 0001312  88.1799 271.9344 15.08847673 66295,6917.857,95.437,540.63,538.814,0.0
53617.0,STARLINK-4601,PAYLOAD,2023-11-04 04:47:37,15.08841348,0.0001372,53.2156,119.0858,85.6543,274.4606,7.3267e-05,8.78e-06,0.0,0 STARLINK-4601,1 53617U 22104AF  23308.19974444  .00000878  00000-0  73267-4 0  9991,2 53617  53.2156 119.0858 0001372  85.6543 274.4606 15.08841348 66331,6917.876,95.437,540.69,538.792,0.0
53617.0,STARLINK-4601,PAYLOAD,2023-11-04 19:06:06,15.08844698,0.0001375,53.2159,116.4097,82.1127,278.0021,0.00010577,1.396e-05,0.0,0 STARLINK-4601,1 53617U 22104AF  23308.79590284  .00001396  00000-0  10577-3 0  9993,2 53617  53.2159 116.4097 0001375  82.1127 278.0021 15.08844698 65851,6917.866,95.437,540.682,538.78,0.0
53617.0,STARLINK-4601,PAYLOAD,2023-11-05 10:59:57,15.08846457,0.0001411,53.2157,113.4361,85.7908,274.3245,0.00017883,2.56e-05,0.0,0 STARLINK-4601,1 53617U 22104AF  23309.45830182  .00002560  00000-0  17883-3 0  9992,2 53617  53.2157 113.4361 0001411  85.7908 274.3245 15.08846457 66524,6917.861,95.437,540.702,538.75,0.0
53617.0,STARLINK-4601,PAYLOAD,2023-11-05 17:21:29,15.08849878,0.0001267,53.2154,112.2466,90.1239,269.9898,0.00022602,3.312e-05,0.0,0 STARLINK-4601,1 53617U 22104AF  23309.72325821  .00003312  00000-0  22602-3 0  9992,2 53617  53.2154 112.2466 0001267  90.1239 269.9898 15.08849878 66568,6917.85,95.437,540.592,538.839,0.0
53617.0,STARLINK-4601,PAYLOAD,2023-11-06 10:50:43,15.08854913,0.0001506,53.2165,108.975,89.9824,270.1341,0.00027831,4.146e-05,0.0,0 STARLINK-4601,1 53617U 22104AF  23310.45189368  .00004146  00000-0  27831-3 0  9993,2 53617  53.2165 108.9750 0001506  89.9824 270.1341 15.08854913 66103,6917.835,95.437,540.742,538.658,0.0
53617.0,STARLINK-4601,PAYLOAD,2023-11-06 14:01:29,15.08856911,0.0001629,53.215,108.3787,95.5746,264.5431,0.00024856,3.672e-05,0.0,0 STARLINK-4601,1 53617U 22104AF  23310.58437145  .00003672  00000-0  24856-3 0  9993,2 53617  53.2150 108.3787 0001629  95.5746 264.5431 15.08856911 66694,6917.829,95.436,540.821,538.567,0.0
53617.0,STARLINK-4601,PAYLOAD,2023-11-06 17:12:16,15.08856398,0.0001453,53.2148,107.7853,80.6203,279.4953,0.00029252,4.373e-05,0.0,0 STARLINK-4601,1 53617U 22104AF  23310.71685302  .00004373  00000-0  29252-3 0  9992,2 53617  53.2148 107.7853 0001453  80.6203 279.4953 15.08856398 66712,6917.83,95.437,540.7,538.69,0.0
53617.0,STARLINK-4601,PAYLOAD,2023-11-07 13:52:17,15.08828571,0.000124,53.2143,103.9186,69.5517,290.5608,-0.00018332,-3.203e-05,0.0,0 STARLINK-4601,1 53617U 22104AF  23311.57798418 -.00003203  00000-0 -18332-3 0  9990,2 53617  53.2143 103.9186 0001240  69.5517 290.5608 15.08828571 66849,6917.915,95.438,540.638,538.923,0.0
53617.0,STARLINK-4601,PAYLOAD,2023-11-07 17:03:04,15.08826051,0.0001266,53.2153,103.323,89.6834,270.4303,-0.00024174,-4.132e-05,0.0,0 STARLINK-4601,1 53617U 22104AF  23311.71046709 -.00004132  00000-0 -24174-3 0  9998,2 53617  53.2153 103.3230 0001266  89.6834 270.4303 15.08826051 66296,6917.923,95.438,540.664,538.912,0.0
53617.0,STARLINK-4601,PAYLOAD,2023-11-08 10:32:19,15.08831275,0.0001383,53.2161,100.0545,85.5088,274.6062,-1.5713e-05,-5.38e-06,0.0,0 STARLINK-4601,1 53617U 22104AF  23312.43911048 -.00000538  00000-0 -15713-4 0  9991,2 53617  53.2161 100.0545 0001383  85.5088 274.6062 15.08831275 66409,6917.907,95.438,540.729,538.815,0.0
53617.0,STARLINK-4601,PAYLOAD,2023-11-08 13:43:05,15.08836127,0.000139,53.2158,99.4607,76.3985,283.7162,8.7924e-05,1.112e-05,0.0,0 STARLINK-4601,1 53617U 22104AF  23312.57159056  .00001112  00000-0  87924-4 0  9999,2 53617  53.2158  99.4607 0001390  76.3985 283.7162 15.08836127 66994,6917.892,95.438,540.719,538.796,0.0
53617.0,STARLINK-4601,PAYLOAD,2023-11-08 16:53:51,15.08842356,0.0001437,53.2154,98.8653,84.5156,275.6,0.00016211,2.293e-05,0.0,0 STARLINK-4601,1 53617U 22104AF  23312.70406794  .00002293  00000-0  16211-3 0  9999,2 53617  53.2154  98.8653 0001437  84.5156 275.6000 15.08842356 66449,6917.873,95.437,540.732,538.744,0.0
53617.0,STARLINK-4601,PAYLOAD,2023-11-09 08:47:43,15.08831228,0.0001393,53.2155,95.8923,89.2453,270.8699,0.00025729,3.808e-05,0.0,0 STARLINK-4601,1 53617U 22104AF  23313.36647551  .00003808  00000-0  25729-3 0  9997,2 53617  53.2155  95.8923 0001393  89.2453 270.8699 15.08831228 66548,6917.907,95.438,540.736,538.809,0.0
53617.0,STARLINK-4601,PAYLOAD,2023-11-09 13:33:52,15.08830101,0.0001259,53.2159,95.0012,90.6304,269.4832,0.00019704,2.849e-05,0.0,0 STARLINK-4601,1 53617U 22104AF  23313.56519669  .00002849  00000-0  19704-3 0  9997,2 53617  53.2159  95.0012 0001259  90.6304 269.4832 15.08830101 67144,6917.911,95.438,540.647,538.905,0.0
53617.0,STARLINK-4601,PAYLOAD,2023-11-09 16:44:39,15.08829742,0.0001223,53.2169,94.4066,97.7052,262.4079,0.00023413,3.439e-05,0.0,0 STARLINK-4601,1 53617U 22104AF  23313.69767612  .00003439  00000-0  23413-3 0  9992,2 53617  53.2169  94.4066 0001223  97.7052 262.4079 15.08829742 67163,6917.912,95.438,540.623,538.931,0.0
53617.0,STARLINK-4601,PAYLOAD,2023-11-10 13:24:40,15.08836614,0.0001358,53.2174,90.539,92.4932,267.6215,6.2854e-05,7.12e-06,0.0,0 STARLINK-4601,1 53617U 22104AF  23314.55879921  .00000712  00000-0  62854-4 0  9999,2 53617  53.2174  90.5390 0001358  92.4932 267.6215 15.08836614 67293,6917.891,95.438,540.695,538.816,0.0
53617.0,STARLINK-4601,PAYLOAD,2023-11-10 16:35:26,15.08842057,0.0001453,53.2172,89.9423,83.5544,276.5613,7.4021e-05,8.9e-06,0.0,0 STARLINK-4601,1 53617U 22104AF  23314.69127486  .00000890  00000-0  74021-4 0  9992,2 53617  53.2172  89.9423 0001453  83.5544 276.5613 15.08842057 66744,6917.874,95.437,540.744,538.734,0.0
53617.0,STARLINK-4601,PAYLOAD,2023-11-11 13:15:26,15.08839969,0.0001392,53.217,86.0794,84.4541,275.661,0.00010987,1.461e-05,0.0,0 STARLINK-4601,1 53617U 22104AF  23315.55239567  .00001461  00000-0  10987-3 0  9997,2 53617  53.2170  86.0794 0001392  84.4541 275.6610 15.08839969 67443,6917.88,95.438,540.708,538.783,0.0
53617.0,STARLINK-4601,PAYLOAD,2023-11-11 18:01:35,15.08846603,0.0001265,53.2172,85.1862,91.1464,268.9673,0.00010724,1.42e-05,0.0,0 STARLINK-4601,1 53617U 22104AF  23315.75111071  .00001420  00000-0  10724-3 0  9992,2 53617  53.2172  85.1862 0001265  91.1464 268.9673 15.08846603 66906,6917.86,95.437,540.6,538.85,0.0
53617.0,STARLINK-4601,PAYLOAD,2023-11-12 01:58:32,15.08841232,0.0001361,53.2175,83.6998,85.0487,275.066,2.6458e-05,1.33e-06,0.0,0 STARLINK-4601,1 53617U 22104AF  23316.08231539  .00000133  00000-0  26458-4 0  9993,2 53617  53.2175  83.6998 0001361  85.0487 275.0660 15.08841232 66959,6917.877,95.437,540.683,538.8,0.0
53617.0,STARLINK-4601,PAYLOAD,2023-11-12 14:41:37,15.08835095,0.0001214,53.2167,81.3224,82.2609,277.8521,5.9301e-05,6.56e-06,0.0,0 STARLINK-4601,1 53617U 22104AF  23316.61223985  .00000656  00000-0  59301-4 0  9991,2 53617  53.2167  81.3224 0001214  82.2609 277.8521 15.08835095 67608,6917.895,95.438,540.6,538.921,0.0
53617.0,STARLINK-4601,PAYLOAD,2023-11-12 16:17:00,15.0884406,0.0001347,53.2168,81.0237,88.0957,272.019,6.6234e-05,7.66e-06,0.0,0 STARLINK-4601,1 53617U 22104AF  23316.67847387  .00000766  00000-0  66234-4 0  9990,2 53617  53.2168  81.0237 0001347  88.0957 272.0190 15.08844060 67619,6917.868,95.437,540.665,538.801,0.0
53617.0,STARLINK-4601,PAYLOAD,2023-11-13 08:10:51,15.08848536,0.000136,53.2167,78.0499,91.1627,268.9521,0.00011105,1.48e-05,0.0,0 STARLINK-4601,1 53617U 22104AF  23317.34086924  .00001480  00000-0  11105-3 0  9997,2 53617  53.2167  78.0499 0001360  91.1627 268.9521 15.08848536 67140,6917.854,95.437,540.66,538.778,0.0
53617.0,STARLINK-4601,PAYLOAD,2023-11-13 12:57:00,15.08851736,0.0001385,53.2168,77.1589,79.7516,280.3633,0.00012567,1.713e-05,0.0,0 STARLINK-4601,1 53617U 22104AF  23317.53958624  .00001713  00000-0  12567-3 0  9995,2 53617  53.2168  77.1589 0001385  79.7516 280.3633 15.08851736 67741,6917.845,95.437,540.668,538.751,0.0
53617.0,STARLINK-4601,PAYLOAD,2023-11-14 11:12:25,15.08834234,0.000129,53.217,72.995,68.74,291.3729,7.0321e-05,8.31e-06,0.0,0 STARLINK-4601,1 53617U 22104AF  23318.46695785  .00000831  00000-0  70321-4 0  9997,2 53617  53.2170  72.9950 0001290  68.7400 291.3729 15.08834234 67319,6917.898,95.438,540.655,538.871,0.0
53617.0,STARLINK-4601,PAYLOAD,2023-11-14 14:23:11,15.08833316,0.0001307,53.2169,72.3994,90.1108,270.0034,5.7531e-05,6.28e-06,0.0,0 STARLINK-4601,1 53617U 22104AF  23318.59943913  .00000628  00000-0  57531-4 0  9992,2 53617  53.2169  72.3994 0001307  90.1108 270.0034 15.08833316 67900,6917.901,95.438,540.67,538.862,0.0
53617.0,STARLINK-4601,PAYLOAD,2023-11-15 11:03:13,15.08768919,0.0002003,53.2177,68.5322,97.0707,263.0513,0.0010464,0.00016372,0.0,0 STARLINK-4601,1 53617U 22104AF  23319.46057424  .00016372  00000-0  10464-2 0  9997,2 53617  53.2177  68.5322 0002003  97.0707 263.0513 15.08768919 67467,6918.098,95.442,541.348,538.577,0.0
